{
  "norad_id": 61563,
  "name": "QIANFAN-30",
  "history": [
    {
      "epoch": "2026-04-10T05:28:03.893376Z",
      "apogee_km": 1079.2553450495625,
      "perigee_km": 1065.0293346612834,
      "latitude_deg": 1.2746162265249046e-05,
      "longitude_deg": 148.12839495565746,
      "height_km": 1071.5650090377376,
      "semi_major_axis_km": 7450.279339855423,
      "eccentricity": 0.00095473,
      "inclination_deg": 88.9781,
      "raan_deg": 68.6093,
      "arg_perigee_deg": 60.4237,
      "mean_anomaly_deg": 299.7864,
      "mean_motion_rev_day": 13.50031579
    },
    {
      "epoch": "2026-04-11T20:36:04.164192Z",
      "apogee_km": 1079.2046939474521,
      "perigee_km": 1065.0774766421155,
      "latitude_deg": 3.362796040886966e-05,
      "longitude_deg": -80.64778823380566,
      "height_km": 1071.1908339373035,
      "semi_major_axis_km": 7450.2780852947835,
      "eccentricity": 0.0009481,
      "inclination_deg": 88.9783,
      "raan_deg": 68.4414,
      "arg_perigee_deg": 56.6354,
      "mean_anomaly_deg": 303.5703,
      "mean_motion_rev_day": 13.5003192
    },
    {
      "epoch": "2026-04-13T04:37:09.799392Z",
      "apogee_km": 1079.152474895228,
      "perigee_km": 1065.1277752239312,
      "latitude_deg": -2.241387538008783e-05,
      "longitude_deg": 157.6263880911824,
      "height_km": 1070.9044741050586,
      "semi_major_axis_km": 7450.277125059579,
      "eccentricity": 0.00094122,
      "inclination_deg": 88.9786,
      "raan_deg": 68.304,
      "arg_perigee_deg": 53.5008,
      "mean_anomaly_deg": 306.7008,
      "mean_motion_rev_day": 13.50032181
    },
    {
      "epoch": "2026-04-14T21:31:53.625216Z",
      "apogee_km": 1079.087746486778,
      "perigee_km": 1065.1900018710858,
      "latitude_deg": -2.3039897585391258e-05,
      "longitude_deg": -97.91182096668216,
      "height_km": 1070.5578445504484,
      "semi_major_axis_km": 7450.275874178932,
      "eccentricity": 0.0009327,
      "inclination_deg": 88.9789,
      "raan_deg": 68.1286,
      "arg_perigee_deg": 49.4496,
      "mean_anomaly_deg": 310.7465,
      "mean_motion_rev_day": 13.50032521
    },
    {
      "epoch": "2026-04-15T20:39:20.988576Z",
      "apogee_km": 1079.0468631996673,
      "perigee_km": 1065.2295827711187,
      "latitude_deg": 4.418018989316283e-05,
      "longitude_deg": -85.82471182149264,
      "height_km": 1070.3801176955199,
      "semi_major_axis_km": 7450.275222985392,
      "eccentricity": 0.0009273,
      "inclination_deg": 88.9791,
      "raan_deg": 68.0294,
      "arg_perigee_deg": 47.1852,
      "mean_anomaly_deg": 313.0077,
      "mean_motion_rev_day": 13.50032698
    },
    {
      "epoch": "2026-04-16T21:33:31.982112Z",
      "apogee_km": 1078.9968775626376,
      "perigee_km": 1065.2779422642225,
      "latitude_deg": 2.680308826692366e-05,
      "longitude_deg": -100.50004862906268,
      "height_km": 1070.1970001863026,
      "semi_major_axis_km": 7450.27440991343,
      "eccentricity": 0.0009207,
      "inclination_deg": 88.9793,
      "raan_deg": 67.9226,
      "arg_perigee_deg": 44.6678,
      "mean_anomaly_deg": 315.5213,
      "mean_motion_rev_day": 13.50032919
    },
    {
      "epoch": "2026-04-17T22:27:42.960096Z",
      "apogee_km": 1078.9426277229004,
      "perigee_km": 1065.3303820076317,
      "latitude_deg": 2.0260220585837078e-05,
      "longitude_deg": -115.1752209689024,
      "height_km": 1070.0309633704755,
      "semi_major_axis_km": 7450.273504865266,
      "eccentricity": 0.00091354,
      "inclination_deg": 88.9795,
      "raan_deg": 67.8159,
      "arg_perigee_deg": 42.1707,
      "mean_anomaly_deg": 318.0145,
      "mean_motion_rev_day": 13.50033165
    },
    {
      "epoch": "2026-04-18T19:48:26.643168Z",
      "apogee_km": 1078.895221100005,
      "perigee_km": 1065.3759564604052,
      "latitude_deg": -3.1665822643829897e-06,
      "longitude_deg": -76.32536131819178,
      "height_km": 1069.9009472133714,
      "semi_major_axis_km": 7450.272588780205,
      "eccentricity": 0.0009073,
      "inclination_deg": 88.9796,
      "raan_deg": 67.7244,
      "arg_perigee_deg": 40.0534,
      "mean_anomaly_deg": 320.1284,
      "mean_motion_rev_day": 13.50033414
    },
    {
      "epoch": "2026-04-19T20:42:37.590048Z",
      "apogee_km": 1078.8407064164176,
      "perigee_km": 1065.4287272717547,
      "latitude_deg": -1.2380699226725088e-05,
      "longitude_deg": -91.00050611254936,
      "height_km": 1069.7610336637067,
      "semi_major_axis_km": 7450.271716844086,
      "eccentricity": 0.0009001,
      "inclination_deg": 88.9797,
      "raan_deg": 67.6176,
      "arg_perigee_deg": 37.5878,
      "mean_anomaly_deg": 322.59,
      "mean_motion_rev_day": 13.50033651
    },
    {
      "epoch": "2026-04-20T12:43:10.331616Z",
      "apogee_km": 1078.7999684969682,
      "perigee_km": 1065.468155447833,
      "latitude_deg": 1.4521567056039817e-06,
      "longitude_deg": 28.136999423629447,
      "height_km": 1069.679124247761,
      "semi_major_axis_km": 7450.2710619724,
      "eccentricity": 0.00089472,
      "inclination_deg": 88.9798,
      "raan_deg": 67.549,
      "arg_perigee_deg": 35.9575,
      "mean_anomaly_deg": 324.2176,
      "mean_motion_rev_day": 13.50033829
    },
    {
      "epoch": "2026-04-21T20:44:15.775008Z",
      "apogee_km": 1078.720635446969,
      "perigee_km": 1065.5440890528944,
      "latitude_deg": 3.521580083802258e-06,
      "longitude_deg": -93.58772451724357,
      "height_km": 1069.5283289958813,
      "semi_major_axis_km": 7450.269362249931,
      "eccentricity": 0.0008843,
      "inclination_deg": 88.98,
      "raan_deg": 67.4119,
      "arg_perigee_deg": 32.6714,
      "mean_anomaly_deg": 327.4982,
      "mean_motion_rev_day": 13.50034291
    },
    {
      "epoch": "2026-04-22T18:04:59.386368Z",
      "apogee_km": 1078.6653131820467,
      "perigee_km": 1065.5975423597365,
      "latitude_deg": 4.063845695121079e-05,
      "longitude_deg": -54.73756643001409,
      "height_km": 1069.4464271696218,
      "semi_major_axis_km": 7450.268427770891,
      "eccentricity": 0.000877,
      "inclination_deg": 88.9801,
      "raan_deg": 67.3204,
      "arg_perigee_deg": 30.5392,
      "mean_anomaly_deg": 329.6268,
      "mean_motion_rev_day": 13.50034545
    },
    {
      "epoch": "2026-04-23T13:38:59.329536Z",
      "apogee_km": 1078.6064182335667,
      "perigee_km": 1065.6539797028163,
      "latitude_deg": 8.82350748636042e-06,
      "longitude_deg": 10.875294399194729,
      "height_km": 1069.3807907241385,
      "semi_major_axis_km": 7450.267198968191,
      "eccentricity": 0.00086926,
      "inclination_deg": 88.9802,
      "raan_deg": 67.2366,
      "arg_perigee_deg": 28.4783,
      "mean_anomaly_deg": 331.6841,
      "mean_motion_rev_day": 13.50034879
    },
    {
      "epoch": "2026-04-24T19:53:21.033024Z",
      "apogee_km": 1078.5309260191943,
      "perigee_km": 1065.7254102482066,
      "latitude_deg": 1.4220657368213596e-05,
      "longitude_deg": -84.08642469100494,
      "height_km": 1069.2838199035587,
      "semi_major_axis_km": 7450.2651681337,
      "eccentricity": 0.0008594,
      "inclination_deg": 88.9804,
      "raan_deg": 67.1072,
      "arg_perigee_deg": 25.3029,
      "mean_anomaly_deg": 334.8541,
      "mean_motion_rev_day": 13.50035431
    },
    {
      "epoch": "2026-04-25T20:47:31.789824Z",
      "apogee_km": 1078.4586584478784,
      "perigee_km": 1065.7932114584582,
      "latitude_deg": 4.177032009717328e-05,
      "longitude_deg": -98.76067378382807,
      "height_km": 1069.227960167111,
      "semi_major_axis_km": 7450.262934953168,
      "eccentricity": 0.00085,
      "inclination_deg": 88.9806,
      "raan_deg": 67.0005,
      "arg_perigee_deg": 22.6833,
      "mean_anomaly_deg": 337.4692,
      "mean_motion_rev_day": 13.50036038
    },
    {
      "epoch": "2026-04-26T21:41:42.520704Z",
      "apogee_km": 1078.3906111765664,
      "perigee_km": 1065.8574840318452,
      "latitude_deg": 3.7945976277949836e-05,
      "longitude_deg": -113.43471443773952,
      "height_km": 1069.181066418498,
      "semi_major_axis_km": 7450.2610476042055,
      "eccentricity": 0.00084112,
      "inclination_deg": 88.9808,
      "raan_deg": 66.8939,
      "arg_perigee_deg": 19.9992,
      "mean_anomaly_deg": 340.1487,
      "mean_motion_rev_day": 13.50036551
    },
    {
      "epoch": "2026-04-27T19:02:25.968768Z",
      "apogee_km": 1078.3178141846001,
      "perigee_km": 1065.9265431186677,
      "latitude_deg": 3.46973834736001e-05,
      "longitude_deg": -74.58367191042866,
      "height_km": 1069.1743397967564,
      "semi_major_axis_km": 7450.259178651634,
      "eccentricity": 0.0008316,
      "inclination_deg": 88.9809,
      "raan_deg": 66.8026,
      "arg_perigee_deg": 17.9482,
      "mean_anomaly_deg": 342.1961,
      "mean_motion_rev_day": 13.50037059
    },
    {
      "epoch": "2026-04-28T19:56:36.626208Z",
      "apogee_km": 1078.2473865834809,
      "perigee_km": 1065.9932033846926,
      "latitude_deg": 5.258854129016984e-05,
      "longitude_deg": -89.25750507775822,
      "height_km": 1069.153479531339,
      "semi_major_axis_km": 7450.257294984087,
      "eccentricity": 0.0008224,
      "inclination_deg": 88.981,
      "raan_deg": 66.6959,
      "arg_perigee_deg": 15.1602,
      "mean_anomaly_deg": 344.9794,
      "mean_motion_rev_day": 13.50037571
    },
    {
      "epoch": "2026-04-29T20:50:47.248224Z",
      "apogee_km": 1078.1617308077075,
      "perigee_km": 1066.074436959614,
      "latitude_deg": -5.046082132451936e-05,
      "longitude_deg": -103.93089279824886,
      "height_km": 1069.1672570169399,
      "semi_major_axis_km": 7450.2550838836605,
      "eccentricity": 0.0008112,
      "inclination_deg": 88.9813,
      "raan_deg": 66.5895,
      "arg_perigee_deg": 12.5791,
      "mean_anomaly_deg": 347.556,
      "mean_motion_rev_day": 13.50038172
    }
  ]
}